{
  "type": "FeatureCollection",
  "features": [
    {
      "type": "Feature",
      "properties": {
        "norad_id": 66440,
        "name": "STARLINK-35405",
        "group": "last-30-days",
        "lat": -31.207118219062327,
        "lon": -78.87762040085481,
        "alt_km": 446.3863747894284,
        "timestamp": "2025-12-10T11:33:52.170996+00:00",
        "meta_object_name": "STARLINK-35405",
        "meta_object_id": "2025-259U",
        "meta_epoch": "2025-12-10T04:00:01.998720",
        "meta_mean_motion": 15.41039474,
        "meta_eccentricity": 0.00015,
        "meta_inclination": 43.0003,
        "meta_ra_of_asc_node": 62.3913,
        "meta_arg_of_pericenter": 283.0061,
        "meta_mean_anomaly": 356.1051,
        "meta_ephemeris_type": 0,
        "meta_classification_type": "U",
        "meta_norad_cat_id": 66440,
        "meta_element_set_no": 999,
        "meta_rev_at_epoch": 586,
        "meta_bstar": -0.014409,
        "meta_mean_motion_dot": -0.00565942,
        "meta_mean_motion_ddot": 0,
        "tle_line1": "1 66440U 25259U   25344.16668980 -.00565942  00000+0 -14409-1 0  9996",
        "tle_line2": "2 66440  43.0003  62.3913 0001500 283.0061 356.1051 15.41039474  5860"
      },
      "geometry": {
        "type": "Point",
        "coordinates": [
          -78.87762040085481,
          -31.207118219062327
        ]
      }
    },
    {
      "type": "Feature",
      "properties": {
        "norad_id": 66441,
        "name": "STARLINK-35426",
        "group": "last-30-days",
        "lat": -36.88557061696493,
        "lon": -65.81633799555561,
        "alt_km": 444.0644919900351,
        "timestamp": "2025-12-10T11:33:52.171019+00:00",
        "meta_object_name": "STARLINK-35426",
        "meta_object_id": "2025-259V",
        "meta_epoch": "2025-12-10T04:00:01.998720",
        "meta_mean_motion": 15.42925091,
        "meta_eccentricity": 0.000158,
        "meta_inclination": 43,
        "meta_ra_of_asc_node": 62.3644,
        "meta_arg_of_pericenter": 267.9518,
        "meta_mean_anomaly": 21.9019,
        "meta_ephemeris_type": 0,
        "meta_classification_type": "U",
        "meta_norad_cat_id": 66441,
        "meta_element_set_no": 999,
        "meta_rev_at_epoch": 586,
        "meta_bstar": -0.054678,
        "meta_mean_motion_dot": -0.02209097,
        "meta_mean_motion_ddot": 0,
        "tle_line1": "1 66441U 25259V   25344.16668980 -.02209097  00000+0 -54678-1 0  9997",
        "tle_line2": "2 66441  43.0000  62.3644 0001580 267.9518  21.9019 15.42925091  5866"
      },
      "geometry": {
        "type": "Point",
        "coordinates": [
          -65.81633799555561,
          -36.88557061696493
        ]
      }
    },
    {
      "type": "Feature",
      "properties": {
        "norad_id": 66442,
        "name": "STARLINK-34724",
        "group": "last-30-days",
        "lat": -40.5899720702437,
        "lon": -52.63359643972321,
        "alt_km": 440.48829265920085,
        "timestamp": "2025-12-10T11:33:52.171032+00:00",
        "meta_object_name": "STARLINK-34724",
        "meta_object_id": "2025-259W",
        "meta_epoch": "2025-12-10T04:00:01.998720",
        "meta_mean_motion": 15.44131689,
        "meta_eccentricity": 0.0001085,
        "meta_inclination": 42.9998,
        "meta_ra_of_asc_node": 62.3425,
        "meta_arg_of_pericenter": 260.1871,
        "meta_mean_anomaly": 39.1599,
        "meta_ephemeris_type": 0,
        "meta_classification_type": "U",
        "meta_norad_cat_id": 66442,
        "meta_element_set_no": 999,
        "meta_rev_at_epoch": 586,
        "meta_bstar": -0.047755,
        "meta_mean_motion_dot": -0.01996013,
        "meta_mean_motion_ddot": 0,
        "tle_line1": "1 66442U 25259W   25344.16668980 -.01996013  00000+0 -47755-1 0  9996",
        "tle_line2": "2 66442  42.9998  62.3425 0001085 260.1871  39.1599 15.44131689  5863"
      },
      "geometry": {
        "type": "Point",
        "coordinates": [
          -52.63359643972321,
          -40.5899720702437
        ]
      }
    },
    {
      "type": "Feature",
      "properties": {
        "norad_id": 66443,
        "name": "STARLINK-35219",
        "group": "last-30-days",
        "lat": -42.484594632196824,
        "lon": -40.148510814066626,
        "alt_km": 436.5444060393402,
        "timestamp": "2025-12-10T11:33:52.171042+00:00",
        "meta_object_name": "STARLINK-35219",
        "meta_object_id": "2025-259X",
        "meta_epoch": "2025-12-10T04:00:01.998720",
        "meta_mean_motion": 15.45476674,
        "meta_eccentricity": 0.0001217,
        "meta_inclination": 43.0005,
        "meta_ra_of_asc_node": 62.3225,
        "meta_arg_of_pericenter": 259.4135,
        "meta_mean_anomaly": 47.9673,
        "meta_ephemeris_type": 0,
        "meta_classification_type": "U",
        "meta_norad_cat_id": 66443,
        "meta_element_set_no": 999,
        "meta_rev_at_epoch": 575,
        "meta_bstar": -0.04611,
        "meta_mean_motion_dot": -0.02016298,
        "meta_mean_motion_ddot": 0,
        "tle_line1": "1 66443U 25259X   25344.16668980 -.02016298  00000+0 -46110-1 0  9990",
        "tle_line2": "2 66443  43.0005  62.3225 0001217 259.4135  47.9673 15.45476674  5759"
      },
      "geometry": {
        "type": "Point",
        "coordinates": [
          -40.148510814066626,
          -42.484594632196824
        ]
      }
    },
    {
      "type": "Feature",
      "properties": {
        "norad_id": 66444,
        "name": "STARLINK-35360",
        "group": "last-30-days",
        "lat": -41.08939201364332,
        "lon": -8.921952237742675,
        "alt_km": 415.5022713143462,
        "timestamp": "2025-12-10T11:33:52.171053+00:00",
        "meta_object_name": "STARLINK-35360",
        "meta_object_id": "2025-259Y",
        "meta_epoch": "2025-12-09T14:14:38.914944",
        "meta_mean_motion": 15.50671448,
        "meta_eccentricity": 0.0003008,
        "meta_inclination": 43.0004,
        "meta_ra_of_asc_node": 65.6336,
        "meta_arg_of_pericenter": 269.9974,
        "meta_mean_anomaly": 90.0542,
        "meta_ephemeris_type": 0,
        "meta_classification_type": "U",
        "meta_norad_cat_id": 66444,
        "meta_element_set_no": 999,
        "meta_rev_at_epoch": 568,
        "meta_bstar": 0.0018101,
        "meta_mean_motion_dot": 0.00107686,
        "meta_mean_motion_ddot": 0,
        "tle_line1": "1 66444U 25259Y   25343.59350596  .00107686  00000+0  18101-2 0  9996",
        "tle_line2": "2 66444  43.0004  65.6336 0003008 269.9974  90.0542 15.50671448  5683"
      },
      "geometry": {
        "type": "Point",
        "coordinates": [
          -8.921952237742675,
          -41.08939201364332
        ]
      }
    },
    {
      "type": "Feature",
      "properties": {
        "norad_id": 66445,
        "name": "STARLINK-34698",
        "group": "last-30-days",
        "lat": -42.97944076470236,
        "lon": -29.124225541836932,
        "alt_km": 432.52420808723946,
        "timestamp": "2025-12-10T11:33:52.171063+00:00",
        "meta_object_name": "STARLINK-34698",
        "meta_object_id": "2025-259Z",
        "meta_epoch": "2025-12-10T04:00:01.998720",
        "meta_mean_motion": 15.46826667,
        "meta_eccentricity": 0.0001433,
        "meta_inclination": 43.0005,
        "meta_ra_of_asc_node": 62.3044,
        "meta_arg_of_pericenter": 265.2841,
        "meta_mean_anomaly": 48.7121,
        "meta_ephemeris_type": 0,
        "meta_classification_type": "U",
        "meta_norad_cat_id": 66445,
        "meta_element_set_no": 999,
        "meta_rev_at_epoch": 575,
        "meta_bstar": -0.044913,
        "meta_mean_motion_dot": -0.02053908,
        "meta_mean_motion_ddot": 0,
        "tle_line1": "1 66445U 25259Z   25344.16668980 -.02053908  00000+0 -44913-1 0  9990",
        "tle_line2": "2 66445  43.0005  62.3044 0001433 265.2841  48.7121 15.46826667  5758"
      },
      "geometry": {
        "type": "Point",
        "coordinates": [
          -29.124225541836932,
          -42.97944076470236
        ]
      }
    },
    {
      "type": "Feature",
      "properties": {
        "norad_id": 66446,
        "name": "STARLINK-34986",
        "group": "last-30-days",
        "lat": -41.526204724567734,
        "lon": -11.426485183758386,
        "alt_km": 415.66392478358466,
        "timestamp": "2025-12-10T11:33:52.171073+00:00",
        "meta_object_name": "STARLINK-34986",
        "meta_object_id": "2025-259AA",
        "meta_epoch": "2025-12-09T14:15:08.032608",
        "meta_mean_motion": 15.5062385,
        "meta_eccentricity": 0.0002711,
        "meta_inclination": 42.9993,
        "meta_ra_of_asc_node": 65.636,
        "meta_arg_of_pericenter": 273.1662,
        "meta_mean_anomaly": 86.8888,
        "meta_ephemeris_type": 0,
        "meta_classification_type": "U",
        "meta_norad_cat_id": 66446,
        "meta_element_set_no": 999,
        "meta_rev_at_epoch": 568,
        "meta_bstar": 0.0023987,
        "meta_mean_motion_dot": 0.00143221,
        "meta_mean_motion_ddot": 0,
        "tle_line1": "1 66446U 25259AA  25343.59384297  .00143221  00000+0  23987-2 0  9996",
        "tle_line2": "2 66446  42.9993  65.6360 0002711 273.1662  86.8888 15.50623850  5688"
      },
      "geometry": {
        "type": "Point",
        "coordinates": [
          -11.426485183758386,
          -41.526204724567734
        ]
      }
    }
  ]
}